BEIDOU-2 IGSO-4         
1 37763U 11038A   26156.01309722  .00000056  00000+0  00000+0 0  9992
2 37763  54.5979 165.7814 0159001 231.3624 313.8818  1.00287701 54520
ASTRA 1N                
1 37775U 11041A   26159.27623332  .00000135  00000+0  00000+0 0  9994
2 37775   0.0799  35.0655 0006287  57.5999 282.6596  1.00272112 44436
BSAT-3C (JCSAT-110R)    
1 37776U 11041B   26159.29424106 -.00000335  00000+0  00000+0 0  9998
2 37776   0.0191 321.5265 0000480 201.7592 309.2903  1.00271816 50383
PAKSAT-1R               
1 37779U 11042A   26159.27996001  .00000169  00000+0  00000+0 0  9992
2 37779   0.6647  84.6913 0003279 345.6090 325.1588  1.00274769 54385
SES-2                   
1 37809U 11049A   26159.25517789 -.00000180  00000+0  00000+0 0  9997
2 37809   0.0437 120.4096 0002888 314.6480 186.4608  1.00271676 53873
ARABSAT-5C              
1 37810U 11049B   26158.56342296  .00000138  00000+0  00000+0 0  9993
2 37810   0.0594  27.9926 0003292  65.9651  24.8388  1.00273558 53947
EUTELSAT 7 WEST A       
1 37816U 11051A   26159.27094663 -.00000045  00000+0  00000+0 0  9991
2 37816   0.0605 352.9984 0004235  97.1691 256.7217  1.00271298 53788
QUETZSAT 1              
1 37826U 11054A   26159.25716656 -.00000226  00000+0  00000+0 0  9997
2 37826   0.0465  70.5801 0002801   8.3659 193.2957  1.00272000 49782
INTELSAT 18 (IS-18)     
1 37834U 11056A   26159.23678351  .00000069  00000+0  00000+0 0  9999
2 37834   0.0198 322.1359 0002125 129.3771  70.3633  1.00272260 53729
EUTELSAT 16A            
1 37836U 11057A   26159.27562666  .00000119  00000+0  00000+0 0  9993
2 37836   0.0420 353.8349 0005864  86.1353 291.9031  1.00270798  7241
VIASAT-1                
1 37843U 11059A   26158.67930672 -.00000009  00000+0  00000+0 0  9991
2 37843   0.0164 308.0335 0002429 130.1490 307.3551  1.00271945 47223
ASIASAT 7               
1 37933U 11069A   26159.29328772  .00000000  00000+0  00000+0 0  9993
2 37933   0.0165 350.1199 0001342  81.6221  36.0380  1.00266540 44773
BEIDOU-2 IGSO-5         
1 37948U 11073A   26159.29027339 -.00000161  00000+0  00000+0 0  9998
2 37948  47.6957 271.6577 0113640 221.6704 319.6056  1.00275049 53043
LUCH-5A                 
1 37951U 11074B   26158.59534880 -.00000036  00000+0  00000+0 0  9990
2 37951   8.7288  73.9491 0002349  13.7811 189.5949  1.00269830 52957
NIGCOMSAT 1R            
1 38014U 11077A   26159.28082668  .00000160  00000+0  00000+0 0  9990
2 38014   0.0045 253.2726 0002553 100.2723  46.7112  1.00271775 52866
WGS F4 (USA 233)        
1 38070U 12003A   26159.28984006  .00000000  00000+0  00000+0 0  9992
2 38070   0.0173 336.3720 0000449 307.4181 165.6555  1.00267537 44064
SES-4                   
1 38087U 12007A   26158.34125182 -.00000154  00000+0  00000+0 0  9993
2 38087   0.0248  27.8011 0002492  58.4945 270.3024  1.00270468 52129
BEIDOU-2 G5             
1 38091U 12008A   26159.14151937  .00000073  00000+0  00000+0 0  9994
2 38091   3.5504  69.7521 0009413 276.1223  20.2929  1.00270155 52271
MUOS-1                  
1 38093U 12009A   26159.25257788 -.00000113  00000+0  00000+0 0  9996
2 38093   5.4587  47.1640 0058870   1.1269 199.3131  1.00270661 52358
INTELSAT 22 (IS-22)     
1 38098U 12011A   26159.14411939 -.00000044  00000+0  00000+0 0  9995
2 38098   0.0228  63.7498 0001611   3.9804 312.7921  1.00273351  7095
APSTAR-7                
1 38107U 12013A   26159.14498605 -.00000086  00000+0  00000+0 0  9999
2 38107   0.0366  87.2382 0003022 359.6425 298.3479  1.00271258 51719
YAHSAT 1B               
1 38245U 12016A   26159.28160668  .00000142  00000+0  00000+0 0  9997
2 38245   0.0873  90.9689 0002705   9.6117 305.0795  1.00269504 45512
AEHF-2 (USA 235)        
1 38254U 12019A   26159.13030715 -.00000121  00000+0  00000+0 0  9991
2 38254   6.6307  57.5560 0002322   9.8857 219.4735  1.00270420  6890
JCSAT-13                
1 38331U 12023A   26159.29701440 -.00000340  00000+0  00000+0 0  9992
2 38331   0.0130  39.8308 0002924  61.3488  26.4467  1.00274373 51453
VINASAT-2               
1 38332U 12023B   26159.29857441 -.00000313  00000+0  00000+0 0  9996
2 38332   0.0181  17.4293 0002372  72.1011  46.5043  1.00271906 46573
NIMIQ 6                 
1 38342U 12026A   26159.25439789 -.00000158  00000+0  00000+0 0  9994
2 38342   0.0099 335.6311 0002764  99.8740 181.6296  1.00271653 50326
ZHONGXING-2A            
1 38352U 12028A   26159.00672966 -.00000277  00000+0  00000+0 0  9998
2 38352   1.4298  84.0016 0003754  33.7431 239.3166  1.00270950 51208
INTELSAT 19 (IS-19)     
1 38356U 12030A   26158.59237112 -.00000042  00000+0  00000+0 0  9998
2 38356   0.0106  32.4422 0003092  51.8353 190.9735  1.00271459 50356
ECHOSTAR 17             
1 38551U 12035A   26158.60951166  .00000000  00000+0  00000+0 0  9997
2 38551   0.0178 344.3202 0001806  92.1715 291.8458  1.00269025 50960
METEOSAT-10 (MSG-3)     
1 38552U 12035B   26159.05851455  .00000010  00000+0  00000+0 0  9999
2 38552   4.6491  61.0583 0001633 335.2386 241.4327  1.00275787 50763
SES-5                   
1 38652U 12036A   26158.77434376  .00000049  00000+0  00000+0 0  9990
2 38652   0.0515 307.7529 0001982 128.4245 103.7453  1.00272808 44364
INTELSAT 20 (IS-20)     
1 38740U 12043A   26159.07212127 -.00000008  00000+0  00000+0 0  9994
2 38740   0.0081  87.6182 0001576 100.3071 163.0027  1.00266075 50658
