OBJECT_NAME,OBJECT_ID,EPOCH,MEAN_MOTION,ECCENTRICITY,INCLINATION,RA_OF_ASC_NODE,ARG_OF_PERICENTER,MEAN_ANOMALY,EPHEMERIS_TYPE,CLASSIFICATION_TYPE,NORAD_CAT_ID,ELEMENT_SET_NO,REV_AT_EPOCH,BSTAR,MEAN_MOTION_DOT,MEAN_MOTION_DDOT
BEIDOU-2 IGSO-4,2011-038A,2026-06-05T00:18:51.599808,1.00287701,.01590014,54.5979,165.7814,231.3624,313.8818,0,U,37763,999,5452,0,.56E-6,0
ASTRA 1N,2011-041A,2026-06-08T06:37:46.558848,1.00272112,.00062871,0.0799,35.0655,57.5999,282.6596,0,U,37775,999,4443,0,.135E-5,0
BSAT-3C (JCSAT-110R),2011-041B,2026-06-08T07:03:42.427584,1.00271816,.00004806,0.0191,321.5265,201.7592,309.2903,0,U,37776,999,5038,0,-.335E-5,0
PAKSAT-1R,2011-042A,2026-06-08T06:43:08.544864,1.00274769,.00032793,0.6647,84.6913,345.6090,325.1588,0,U,37779,999,5438,0,.169E-5,0
SES-2,2011-049A,2026-06-08T06:07:27.369696,1.00271676,.00028884,0.0437,120.4096,314.6480,186.4608,0,U,37809,999,5387,0,-.18E-5,0
ARABSAT-5C,2011-049B,2026-06-07T13:31:19.743744,1.00273558,.00032927,0.0594,27.9926,65.9651,24.8388,0,U,37810,999,5394,0,.138E-5,0
EUTELSAT 7 WEST A,2011-051A,2026-06-08T06:30:09.788832,1.00271298,.00042359,0.0605,352.9984,97.1691,256.7217,0,U,37816,999,5378,0,-.45E-6,0
QUETZSAT 1,2011-054A,2026-06-08T06:10:19.190784,1.00272000,.00028016,0.0465,70.5801,8.3659,193.2957,0,U,37826,999,4978,0,-.226E-5,0
INTELSAT 18 (IS-18),2011-056A,2026-06-08T05:40:58.095264,1.00272260,.00021256,0.0198,322.1359,129.3771,70.3633,0,U,37834,999,5372,0,.69E-6,0
EUTELSAT 16A,2011-057A,2026-06-08T06:36:54.143424,1.00270798,.00058642,0.0420,353.8349,86.1353,291.9031,0,U,37836,999,724,0,.119E-5,0
VIASAT-1,2011-059A,2026-06-07T16:18:12.100608,1.00271945,.00024294,0.0164,308.0335,130.1490,307.3551,0,U,37843,999,4722,0,-.9E-7,0
ASIASAT 7,2011-069A,2026-06-08T07:02:20.059008,1.00266540,.0001342,0.0165,350.1199,81.6221,36.0380,0,U,37933,999,4477,0,0,0
BEIDOU-2 IGSO-5,2011-073A,2026-06-08T06:57:59.620896,1.00275049,.01136404,47.6957,271.6577,221.6704,319.6056,0,U,37948,999,5304,0,-.161E-5,0
LUCH-5A,2011-074B,2026-06-07T14:17:18.136320,1.00269830,.00023498,8.7288,73.9491,13.7811,189.5949,0,U,37951,999,5295,0,-.36E-6,0
NIGCOMSAT 1R,2011-077A,2026-06-08T06:44:23.425152,1.00271775,.00025531,0.0045,253.2726,100.2723,46.7112,0,U,38014,999,5286,0,.16E-5,0
WGS F4 (USA 233),2012-003A,2026-06-08T06:57:22.181184,1.00267537,.00004493,0.0173,336.3720,307.4181,165.6555,0,U,38070,999,4406,0,0,0
SES-4,2012-007A,2026-06-07T08:11:24.157248,1.00270468,.00024929,0.0248,27.8011,58.4945,270.3024,0,U,38087,999,5212,0,-.154E-5,0
BEIDOU-2 G5,2012-008A,2026-06-08T03:23:47.273568,1.00270155,.00094132,3.5504,69.7521,276.1223,20.2929,0,U,38091,999,5227,0,.73E-6,0
MUOS-1,2012-009A,2026-06-08T06:03:42.728832,1.00270661,.00588703,5.4587,47.1640,1.1269,199.3131,0,U,38093,999,5235,0,-.113E-5,0
INTELSAT 22 (IS-22),2012-011A,2026-06-08T03:27:31.915296,1.00273351,.00016116,0.0228,63.7498,3.9804,312.7921,0,U,38098,999,709,0,-.44E-6,0
APSTAR-7,2012-013A,2026-06-08T03:28:46.794720,1.00271258,.00030229,0.0366,87.2382,359.6425,298.3479,0,U,38107,999,5171,0,-.86E-6,0
YAHSAT 1B,2012-016A,2026-06-08T06:45:30.817152,1.00269504,.00027057,0.0873,90.9689,9.6117,305.0795,0,U,38245,999,4551,0,.142E-5,0
AEHF-2 (USA 235),2012-019A,2026-06-08T03:07:38.537760,1.00270420,.00023224,6.6307,57.5560,9.8857,219.4735,0,U,38254,999,689,0,-.121E-5,0
JCSAT-13,2012-023A,2026-06-08T07:07:42.044160,1.00274373,.00029243,0.0130,39.8308,61.3488,26.4467,0,U,38331,999,5145,0,-.34E-5,0
VINASAT-2,2012-023B,2026-06-08T07:09:56.829024,1.00271906,.0002372,0.0181,17.4293,72.1011,46.5043,0,U,38332,999,4657,0,-.313E-5,0
NIMIQ 6,2012-026A,2026-06-08T06:06:19.977696,1.00271653,.00027641,0.0099,335.6311,99.8740,181.6296,0,U,38342,999,5032,0,-.158E-5,0
ZHONGXING-2A,2012-028A,2026-06-08T00:09:41.442624,1.00270950,.00037548,1.4298,84.0016,33.7431,239.3166,0,U,38352,999,5120,0,-.277E-5,0
INTELSAT 19 (IS-19),2012-030A,2026-06-07T14:13:00.864768,1.00271459,.00030929,0.0106,32.4422,51.8353,190.9735,0,U,38356,999,5035,0,-.42E-6,0
ECHOSTAR 17,2012-035A,2026-06-07T14:37:41.807424,1.00269025,.00018066,0.0178,344.3202,92.1715,291.8458,0,U,38551,999,5096,0,0,0
METEOSAT-10 (MSG-3),2012-035B,2026-06-08T01:24:15.657120,1.00275787,.00016331,4.6491,61.0583,335.2386,241.4327,0,U,38552,999,5076,0,.1E-6,0
SES-5,2012-036A,2026-06-07T18:35:03.300864,1.00272808,.00019825,0.0515,307.7529,128.4245,103.7453,0,U,38652,999,4436,0,.49E-6,0
INTELSAT 20 (IS-20),2012-043A,2026-06-08T01:43:51.277728,1.00266075,.00015763,0.0081,87.6182,100.3071,163.0027,0,U,38740,999,5065,0,-.8E-7,0
